[{"OBJECT_NAME":"ONEWEB-0012","OBJECT_ID":"2019-010A","EPOCH":"2025-12-03T07:59:32.521920","MEAN_MOTION":13.16594803,"ECCENTRICITY":0.00018553,"INCLINATION":87.9027,"RA_OF_ASC_NODE":267.7916,"ARG_OF_PERICENTER":88.913,"MEAN_ANOMALY":271.2214,"EPHEMERIS_TYPE":0,"CLASSIFICATION_TYPE":"U","NORAD_CAT_ID":44057,"ELEMENT_SET_NO":999,"REV_AT_EPOCH":32579,"BSTAR":0.00016197609,"MEAN_MOTION_DOT":7.5e-7,"MEAN_MOTION_DDOT":0},{"OBJECT_NAME":"ONEWEB-0010","OBJECT_ID":"2019-010B","EPOCH":"2025-12-03T06:46:34.883616","MEAN_MOTION":13.16595895,"ECCENTRICITY":0.00020508,"INCLINATION":87.9038,"RA_OF_ASC_NODE":267.7906,"ARG_OF_PERICENTER":68.219,"MEAN_ANOMALY":291.9159,"EPHEMERIS_TYPE":0,"CLASSIFICATION_TYPE":"U","NORAD_CAT_ID":44058,"ELEMENT_SET_NO":999,"REV_AT_EPOCH":32583,"BSTAR":1.4396365e-5,"MEAN_MOTION_DOT":1.8e-7,"MEAN_MOTION_DDOT":0},{"OBJECT_NAME":"ONEWEB-0008","OBJECT_ID":"2019-010C","EPOCH":"2025-12-03T07:23:03.993504","MEAN_MOTION":13.16595345,"ECCENTRICITY":0.00015793,"INCLINATION":87.9039,"RA_OF_ASC_NODE":267.7824,"ARG_OF_PERICENTER":74.5337,"MEAN_ANOMALY":285.5968,"EPHEMERIS_TYPE":0,"CLASSIFICATION_TYPE":"U","NORAD_CAT_ID":44059,"ELEMENT_SET_NO":999,"REV_AT_EPOCH":32595,"BSTAR":-0.00016393552,"MEAN_MOTION_DOT":-5.0e-7,"MEAN_MOTION_DDOT":0},{"OBJECT_NAME":"ONEWEB-0007","OBJECT_ID":"2019-010D","EPOCH":"2025-12-03T08:08:35.914848","MEAN_MOTION":13.15547568,"ECCENTRICITY":0.00021704,"INCLINATION":87.8979,"RA_OF_ASC_NODE":298.3072,"ARG_OF_PERICENTER":83.758,"MEAN_ANOMALY":276.3797,"EPHEMERIS_TYPE":0,"CLASSIFICATION_TYPE":"U","NORAD_CAT_ID":44060,"ELEMENT_SET_NO":999,"REV_AT_EPOCH":32562,"BSTAR":0.00022098125,"MEAN_MOTION_DOT":9.6e-7,"MEAN_MOTION_DDOT":0},{"OBJECT_NAME":"ONEWEB-0006","OBJECT_ID":"2019-010E","EPOCH":"2025-12-03T08:14:16.808640","MEAN_MOTION":13.15551169,"ECCENTRICITY":0.00020346,"INCLINATION":87.8985,"RA_OF_ASC_NODE":298.2523,"ARG_OF_PERICENTER":78.8049,"MEAN_ANOMALY":281.331,"EPHEMERIS_TYPE":0,"CLASSIFICATION_TYPE":"U","NORAD_CAT_ID":44061,"ELEMENT_SET_NO":999,"REV_AT_EPOCH":32567,"BSTAR":0.00047879152,"MEAN_MOTION_DOT":1.93e-6,"MEAN_MOTION_DDOT":0},{"OBJECT_NAME":"ONEWEB-0011","OBJECT_ID":"2019-010F","EPOCH":"2025-12-03T07:28:41.073600","MEAN_MOTION":13.15547374,"ECCENTRICITY":0.00017619,"INCLINATION":87.8987,"RA_OF_ASC_NODE":298.2679,"ARG_OF_PERICENTER":76.3517,"MEAN_ANOMALY":283.7809,"EPHEMERIS_TYPE":0,"CLASSIFICATION_TYPE":"U","NORAD_CAT_ID":44062,"ELEMENT_SET_NO":999,"REV_AT_EPOCH":32566,"BSTAR":-0.00034150165,"MEAN_MOTION_DOT":-1.16e-6,"MEAN_MOTION_DDOT":0},{"OBJECT_NAME":"ONEWEB-0013","OBJECT_ID":"2020-008A","EPOCH":"2025-12-03T07:52:03.952128","MEAN_MOTION":13.09435422,"ECCENTRICITY":0.00021651,"INCLINATION":87.85,"RA_OF_ASC_NODE":92.3819,"ARG_OF_PERICENTER":128.0823,"MEAN_ANOMALY":232.05,"EPHEMERIS_TYPE":0,"CLASSIFICATION_TYPE":"U","NORAD_CAT_ID":45131,"ELEMENT_SET_NO":999,"REV_AT_EPOCH":28043,"BSTAR":0.00089309561,"MEAN_MOTION_DOT":3.2e-6,"MEAN_MOTION_DDOT":0},{"OBJECT_NAME":"ONEWEB-0017","OBJECT_ID":"2020-008B","EPOCH":"2025-12-03T07:05:25.501056","MEAN_MOTION":13.10369491,"ECCENTRICITY":0.00016236,"INCLINATION":87.8807,"RA_OF_ASC_NODE":75.3252,"ARG_OF_PERICENTER":95.7736,"MEAN_ANOMALY":264.3576,"EPHEMERIS_TYPE":0,"CLASSIFICATION_TYPE":"U","NORAD_CAT_ID":45132,"ELEMENT_SET_NO":999,"REV_AT_EPOCH":28229,"BSTAR":-0.0012964623,"MEAN_MOTION_DOT":-4.4e-6,"MEAN_MOTION_DDOT":0},{"OBJECT_NAME":"ONEWEB-0020","OBJECT_ID":"2020-008C","EPOCH":"2025-12-03T08:12:23.582304","MEAN_MOTION":13.10373065,"ECCENTRICITY":0.00013987,"INCLINATION":87.8817,"RA_OF_ASC_NODE":75.3022,"ARG_OF_PERICENTER":104.8349,"MEAN_ANOMALY":255.2933,"EPHEMERIS_TYPE":0,"CLASSIFICATION_TYPE":"U","NORAD_CAT_ID":45133,"ELEMENT_SET_NO":999,"REV_AT_EPOCH":28269,"BSTAR":0.0018445024,"MEAN_MOTION_DOT":6.57e-6,"MEAN_MOTION_DDOT":0},{"OBJECT_NAME":"ONEWEB-0021","OBJECT_ID":"2020-008D","EPOCH":"2025-12-03T06:43:56.413920","MEAN_MOTION":13.10369572,"ECCENTRICITY":0.00016923,"INCLINATION":87.8806,"RA_OF_ASC_NODE":75.3446,"ARG_OF_PERICENTER":104.6141,"MEAN_ANOMALY":255.5175,"EPHEMERIS_TYPE":0,"CLASSIFICATION_TYPE":"U","NORAD_CAT_ID":45134,"ELEMENT_SET_NO":999,"REV_AT_EPOCH":28299,"BSTAR":0.00092324163,"MEAN_MOTION_DOT":3.35e-6,"MEAN_MOTION_DDOT":0},{"OBJECT_NAME":"ONEWEB-0023","OBJECT_ID":"2020-008F","EPOCH":"2025-12-03T06:59:27.675456","MEAN_MOTION":13.1036887,"ECCENTRICITY":0.00014385,"INCLINATION":87.8801,"RA_OF_ASC_NODE":75.3238,"ARG_OF_PERICENTER":112.7614,"MEAN_ANOMALY":247.3665,"EPHEMERIS_TYPE":0,"CLASSIFICATION_TYPE":"U","NORAD_CAT_ID":45136,"ELEMENT_SET_NO":999,"REV_AT_EPOCH":28242,"BSTAR":-0.00070707078,"MEAN_MOTION_DOT":-2.34e-6,"MEAN_MOTION_DDOT":0},{"OBJECT_NAME":"ONEWEB-0024","OBJECT_ID":"2020-008G","EPOCH":"2025-12-03T06:20:02.795136","MEAN_MOTION":13.10374142,"ECCENTRICITY":0.0001603,"INCLINATION":87.8828,"RA_OF_ASC_NODE":75.2968,"ARG_OF_PERICENTER":102.1013,"MEAN_ANOMALY":258.0294,"EPHEMERIS_TYPE":0,"CLASSIFICATION_TYPE":"U","NORAD_CAT_ID":45137,"ELEMENT_SET_NO":999,"REV_AT_EPOCH":28258,"BSTAR":0.0017399329,"MEAN_MOTION_DOT":6.2e-6,"MEAN_MOTION_DDOT":0},{"OBJECT_NAME":"ONEWEB-0025","OBJECT_ID":"2020-008H","EPOCH":"2025-12-03T06:45:08.046432","MEAN_MOTION":13.10369662,"ECCENTRICITY":0.00017913,"INCLINATION":87.881,"RA_OF_ASC_NODE":75.2983,"ARG_OF_PERICENTER":114.3239,"MEAN_ANOMALY":245.8076,"EPHEMERIS_TYPE":0,"CLASSIFICATION_TYPE":"U","NORAD_CAT_ID":45138,"ELEMENT_SET_NO":999,"REV_AT_EPOCH":28291,"BSTAR":0.00084384873,"MEAN_MOTION_DOT":3.07e-6,"MEAN_MOTION_DDOT":0},{"OBJECT_NAME":"ONEWEB-0026","OBJECT_ID":"2020-008J","EPOCH":"2025-12-03T07:18:51.540480","MEAN_MOTION":13.11416913,"ECCENTRICITY":0.00015682,"INCLINATION":87.8867,"RA_OF_ASC_NODE":60.0714,"ARG_OF_PERICENTER":97.9673,"MEAN_ANOMALY":262.1633,"EPHEMERIS_TYPE":0,"CLASSIFICATION_TYPE":"U","NORAD_CAT_ID":45139,"ELEMENT_SET_NO":999,"REV_AT_EPOCH":28543,"BSTAR":0.001570001,"MEAN_MOTION_DOT":5.69e-6,"MEAN_MOTION_DDOT":0},{"OBJECT_NAME":"ONEWEB-0028","OBJECT_ID":"2020-008K","EPOCH":"2025-12-03T04:26:42.329760","MEAN_MOTION":13.1141671,"ECCENTRICITY":0.00020705,"INCLINATION":87.8858,"RA_OF_ASC_NODE":60.1105,"ARG_OF_PERICENTER":119.6092,"MEAN_ANOMALY":240.5242,"EPHEMERIS_TYPE":0,"CLASSIFICATION_TYPE":"U","NORAD_CAT_ID":45140,"ELEMENT_SET_NO":999,"REV_AT_EPOCH":28293,"BSTAR":-0.001468772,"MEAN_MOTION_DOT":-5.08e-6,"MEAN_MOTION_DDOT":0},{"OBJECT_NAME":"ONEWEB-0032","OBJECT_ID":"2020-008L","EPOCH":"2025-12-03T07:07:49.309536","MEAN_MOTION":13.10370844,"ECCENTRICITY":0.00016631,"INCLINATION":87.8806,"RA_OF_ASC_NODE":75.3244,"ARG_OF_PERICENTER":110.0791,"MEAN_ANOMALY":250.0515,"EPHEMERIS_TYPE":0,"CLASSIFICATION_TYPE":"U","NORAD_CAT_ID":45141,"ELEMENT_SET_NO":999,"REV_AT_EPOCH":28264,"BSTAR":-0.0012552801,"MEAN_MOTION_DOT":-4.25e-6,"MEAN_MOTION_DDOT":0},{"OBJECT_NAME":"ONEWEB-0033","OBJECT_ID":"2020-008M","EPOCH":"2025-12-03T08:21:57.032928","MEAN_MOTION":13.10371991,"ECCENTRICITY":0.00015868,"INCLINATION":87.8807,"RA_OF_ASC_NODE":75.3266,"ARG_OF_PERICENTER":84.1539,"MEAN_ANOMALY":275.9769,"EPHEMERIS_TYPE":0,"CLASSIFICATION_TYPE":"U","NORAD_CAT_ID":45142,"ELEMENT_SET_NO":999,"REV_AT_EPOCH":28256,"BSTAR":0.0018306787,"MEAN_MOTION_DOT":6.52e-6,"MEAN_MOTION_DDOT":0}]
