ONEWEB-0012             
1 44057U 19010A   25337.33301530  .00000075  00000+0  16198-3 0  9998
2 44057  87.9027 267.7916 0001855  88.9130 271.2214 13.16594803325796
ONEWEB-0010             
1 44058U 19010B   25337.28234819  .00000018  00000+0  14396-4 0  9994
2 44058  87.9038 267.7906 0002050  68.2190 291.9159 13.16595895325837
ONEWEB-0008             
1 44059U 19010C   25337.30768511 -.00000050  00000+0 -16394-3 0  9996
2 44059  87.9039 267.7824 0001579  74.5337 285.5968 13.16595345325956
ONEWEB-0007             
1 44060U 19010D   25337.33930457  .00000096  00000+0  22098-3 0  9997
2 44060  87.8979 298.3072 0002170  83.7580 276.3797 13.15547568325620
ONEWEB-0006             
1 44061U 19010E   25337.34325010  .00000193  00000+0  47879-3 0  9994
2 44061  87.8985 298.2523 0002034  78.8049 281.3310 13.15551169325676
ONEWEB-0011             
1 44062U 19010F   25337.31158650 -.00000116  00000+0 -34150-3 0  9991
2 44062  87.8987 298.2679 0001761  76.3517 283.7809 13.15547374325661
ONEWEB-0013             
1 45131U 20008A   25337.32782352  .00000320  00000+0  89310-3 0  9994
2 45131  87.8500  92.3819 0002165 128.0823 232.0500 13.09435422280436
ONEWEB-0017             
1 45132U 20008B   25337.29543404 -.00000440  00000+0 -12965-2 0  9990
2 45132  87.8807  75.3252 0001623  95.7736 264.3576 13.10369491282291
ONEWEB-0020             
1 45133U 20008C   25337.34193961  .00000657  00000+0  18445-2 0  9993
2 45133  87.8817  75.3022 0001398 104.8349 255.2933 13.10373065282691
ONEWEB-0021             
1 45134U 20008D   25337.28051405  .00000335  00000+0  92324-3 0  9995
2 45134  87.8806  75.3446 0001692 104.6141 255.5175 13.10369572282997
ONEWEB-0023             
1 45136U 20008F   25337.29129254 -.00000234  00000+0 -70707-3 0  9997
2 45136  87.8801  75.3238 0001438 112.7614 247.3665 13.10368870282427
ONEWEB-0024             
1 45137U 20008G   25337.26392124  .00000620  00000+0  17399-2 0  9997
2 45137  87.8828  75.2968 0001603 102.1013 258.0294 13.10374142282589
ONEWEB-0025             
1 45138U 20008H   25337.28134313  .00000307  00000+0  84385-3 0  9996
2 45138  87.8810  75.2983 0001791 114.3239 245.8076 13.10369662282911
ONEWEB-0026             
1 45139U 20008J   25337.30476320  .00000569  00000+0  15700-2 0  9991
2 45139  87.8867  60.0714 0001568  97.9673 262.1633 13.11416913285432
ONEWEB-0028             
1 45140U 20008K   25337.18521215 -.00000508  00000+0 -14688-2 0  9992
2 45140  87.8858  60.1105 0002070 119.6092 240.5242 13.11416710282938
ONEWEB-0032             
1 45141U 20008L   25337.29709849 -.00000425  00000+0 -12553-2 0  9993
2 45141  87.8806  75.3244 0001663 110.0791 250.0515 13.10370844282645
ONEWEB-0033             
1 45142U 20008M   25337.34857677  .00000652  00000+0  18307-2 0  9996
2 45142  87.8807  75.3266 0001586  84.1539 275.9769 13.10371991282568
